[{"OBJECT_NAME":"SITRO-AIS 41","OBJECT_ID":"2024-199AB","EPOCH":"2026-03-09T20:16:35.160960","MEAN_MOTION":15.55294818,"ECCENTRICITY":0.00036614,"INCLINATION":97.3111,"RA_OF_ASC_NODE":304.9114,"ARG_OF_PERICENTER":276.2485,"MEAN_ANOMALY":83.8352,"EPHEMERIS_TYPE":0,"CLASSIFICATION_TYPE":"U","NORAD_CAT_ID":61760,"ELEMENT_SET_NO":999,"REV_AT_EPOCH":12227,"BSTAR":0.00081008894,"MEAN_MOTION_DOT":0.00055103,"MEAN_MOTION_DDOT":0},{"OBJECT_NAME":"STARLINK-36642","OBJECT_ID":"2026-022M","EPOCH":"2026-03-09T22:00:01.999584","MEAN_MOTION":15.67111512,"ECCENTRICITY":0.00014785,"INCLINATION":97.2846,"RA_OF_ASC_NODE":102.9081,"ARG_OF_PERICENTER":66.7517,"MEAN_ANOMALY":337.0736,"EPHEMERIS_TYPE":0,"CLASSIFICATION_TYPE":"U","NORAD_CAT_ID":67659,"ELEMENT_SET_NO":999,"REV_AT_EPOCH":608,"BSTAR":-0.020317165,"MEAN_MOTION_DOT":-0.01917754,"MEAN_MOTION_DDOT":0}]
